start=new Date('2022-06-15T00:00:00.000Z').valueOf();
sats=[{"INCLINATION":"53.0533","COUNTRY_CODE":"US","OBJECT_TYPE":"PAYLOAD","OBJECT_NAME":"STARLINK-1581","APOAPSIS":"548.476","RA_OF_ASC_NODE":"130.2190","EPOCH":"2022-06-14T14:34:05.021184","TIME_SYSTEM":"UTC","TLE_LINE2":"2 46042  53.0533 130.2190 0001826  61.9394 298.1780 15.06400666103252","NORAD_CAT_ID":"46042","MEAN_ANOMALY":"298.1780","MEAN_MOTION":"15.06400666","ELEMENT_SET_NO":"999","MEAN_ELEMENT_THEORY":"SGP4","REF_FRAME":"TEME","SEMIMAJOR_AXIS":"6925.347","PERIOD":"95.592","DECAY_DATE":null,"OBJECT_ID":"2020-055R","BSTAR":"-0.00004243000000","CENTER_NAME":"EARTH","LAUNCH_DATE":"2020-08-07","CLASSIFICATION_TYPE":"U","ECCENTRICITY":"0.00018260","PERIAPSIS":"545.947","RCS_SIZE":"LARGE","MEAN_MOTION_DDOT":"0.0000000000000","ARG_OF_PERICENTER":"61.9394","TLE_LINE1":"1 46042U 20055R   22165.60700256 -.00000914  00000-0 -42430-4 0  9993","GP_ID":"206168082","SITE":"AFETR","FILE":"3496199","MEAN_MOTION_DOT":"-0.00000914","REV_AT_EPOCH":"10325","EPHEMERIS_TYPE":"0"},{"CLASSIFICATION_TYPE":"U","LAUNCH_DATE":"2020-08-07","CENTER_NAME":"EARTH","BSTAR":"-0.00000266340000","PERIAPSIS":"545.859","RCS_SIZE":"LARGE","ECCENTRICITY":"0.00019790","SITE":"AFETR","MEAN_MOTION_DDOT":"0.0000000000000","TLE_LINE1":"1 46043U 20055S   22165.59963016 -.00000321  00000-0 -26634-5 0  9998","GP_ID":"206166835","ARG_OF_PERICENTER":"62.8963","EPHEMERIS_TYPE":"0","MEAN_MOTION_DOT":"-0.00000321","REV_AT_EPOCH":"10328","FILE":"3496199","OBJECT_TYPE":"PAYLOAD","COUNTRY_CODE":"US","INCLINATION":"53.0535","EPOCH":"2022-06-14T14:23:28.045824","OBJECT_NAME":"STARLINK-1582","RA_OF_ASC_NODE":"130.2660","APOAPSIS":"548.600","ELEMENT_SET_NO":"999","MEAN_ELEMENT_THEORY":"SGP4","NORAD_CAT_ID":"46043","TIME_SYSTEM":"UTC","TLE_LINE2":"2 46043  53.0535 130.2660 0001979  62.8963 297.2228 15.06394659103282","MEAN_ANOMALY":"297.2228","MEAN_MOTION":"15.06394659","OBJECT_ID":"2020-055S","DECAY_DATE":null,"SEMIMAJOR_AXIS":"6925.365","REF_FRAME":"TEME","PERIOD":"95.592"},{"FILE":"3496199","EPHEMERIS_TYPE":"0","MEAN_MOTION_DOT":"0.00051273","REV_AT_EPOCH":"10329","MEAN_MOTION_DDOT":"0.0000000000000","ARG_OF_PERICENTER":"68.3157","TLE_LINE1":"1 46044U 20055T   22165.61357327  .00051273  00000-0  33888-2 0  9990","GP_ID":"206167085","SITE":"AFETR","ECCENTRICITY":"0.00021750","PERIAPSIS":"544.135","RCS_SIZE":"LARGE","BSTAR":"0.00338880000000","CLASSIFICATION_TYPE":"U","CENTER_NAME":"EARTH","LAUNCH_DATE":"2020-08-07","SEMIMAJOR_AXIS":"6923.776","REF_FRAME":"TEME","PERIOD":"95.560","OBJECT_ID":"2020-055T","DECAY_DATE":null,"NORAD_CAT_ID":"46044","TIME_SYSTEM":"UTC","TLE_LINE2":"2 46044  53.0534 130.1868 0002175  68.3157 291.8064 15.06913197103299","MEAN_MOTION":"15.06913197","MEAN_ANOMALY":"291.8064","ELEMENT_SET_NO":"999","MEAN_ELEMENT_THEORY":"SGP4","OBJECT_NAME":"STARLINK-1584","RA_OF_ASC_NODE":"130.1868","APOAPSIS":"547.147","EPOCH":"2022-06-14T14:43:32.730528","INCLINATION":"53.0534","OBJECT_TYPE":"PAYLOAD","COUNTRY_CODE":"US"},{"OBJECT_NAME":"STARLINK-1591","RA_OF_ASC_NODE":"128.9478","APOAPSIS":"548.577","EPOCH":"2022-06-14T21:22:46.868736","INCLINATION":"53.0553","OBJECT_TYPE":"PAYLOAD","COUNTRY_CODE":"US","SEMIMAJOR_AXIS":"6925.357","REF_FRAME":"TEME","PERIOD":"95.592","OBJECT_ID":"2020-055U","DECAY_DATE":null,"NORAD_CAT_ID":"46045","TLE_LINE2":"2 46045  53.0553 128.9478 0001957  59.4700 300.6482 15.06397198103318","TIME_SYSTEM":"UTC","MEAN_ANOMALY":"300.6482","MEAN_MOTION":"15.06397198","ELEMENT_SET_NO":"999","MEAN_ELEMENT_THEORY":"SGP4","ECCENTRICITY":"0.00019570","PERIAPSIS":"545.867","RCS_SIZE":"LARGE","BSTAR":"-0.00005465100000","CLASSIFICATION_TYPE":"U","LAUNCH_DATE":"2020-08-07","CENTER_NAME":"EARTH","FILE":"3496199","REV_AT_EPOCH":"10331","MEAN_MOTION_DOT":"-0.00001096","EPHEMERIS_TYPE":"0","MEAN_MOTION_DDOT":"0.0000000000000","TLE_LINE1":"1 46045U 20055U   22165.89082024 -.00001096  00000-0 -54651-4 0  9993","ARG_OF_PERICENTER":"59.4700","GP_ID":"206167836","SITE":"AFETR"},{"EPOCH":"2022-06-14T21:04:25.569408","OBJECT_NAME":"STARLINK-1514","APOAPSIS":"327.204","RA_OF_ASC_NODE":"15.6692","COUNTRY_CODE":"US","OBJECT_TYPE":"PAYLOAD","INCLINATION":"53.0496","DECAY_DATE":null,"OBJECT_ID":"2020-055V","REF_FRAME":"TEME","SEMIMAJOR_AXIS":"6702.623","PERIOD":"91.018","ELEMENT_SET_NO":"999","MEAN_ELEMENT_THEORY":"SGP4","TIME_SYSTEM":"UTC","TLE_LINE2":"2 46046  53.0496  15.6692 0004053 180.6093 179.4925 15.82106087104894","NORAD_CAT_ID":"46046","MEAN_MOTION":"15.82106087","MEAN_ANOMALY":"179.4925","PERIAPSIS":"321.771","RCS_SIZE":"LARGE","ECCENTRICITY":"0.00040530","CENTER_NAME":"EARTH","LAUNCH_DATE":"2020-08-07","CLASSIFICATION_TYPE":"U","BSTAR":"0.00079310000000","REV_AT_EPOCH":"10489","MEAN_MOTION_DOT":"0.00168373","EPHEMERIS_TYPE":"0","FILE":"3496199","SITE":"AFETR","MEAN_MOTION_DDOT":"0.0000000000000","ARG_OF_PERICENTER":"180.6093","TLE_LINE1":"1 46046U 20055V   22165.87807372  .00168373  00000-0  79310-3 0  9991","GP_ID":"206167583"},{"COUNTRY_CODE":"US","OBJECT_TYPE":"PAYLOAD","INCLINATION":"53.0527","EPOCH":"2022-06-14T20:15:06.194880","APOAPSIS":"548.237","RA_OF_ASC_NODE":"119.1584","OBJECT_NAME":"STARLINK-1524","MEAN_ELEMENT_THEORY":"SGP4","ELEMENT_SET_NO":"999","MEAN_MOTION":"15.06400260","MEAN_ANOMALY":"296.8799","TIME_SYSTEM":"UTC","TLE_LINE2":"2 46047  53.0527 119.1584 0001479  63.2341 296.8799 15.06400260103462","NORAD_CAT_ID":"46047","DECAY_DATE":null,"OBJECT_ID":"2020-055W","PERIOD":"95.592","REF_FRAME":"TEME","SEMIMAJOR_AXIS":"6925.348","LAUNCH_DATE":"2020-08-07","CENTER_NAME":"EARTH","CLASSIFICATION_TYPE":"U","BSTAR":"-0.00000799850000","RCS_SIZE":"LARGE","PERIAPSIS":"546.189","ECCENTRICITY":"0.00014790","SITE":"AFETR","TLE_LINE1":"1 46047U 20055W   22165.84382170 -.00000401  00000-0 -79985-5 0  9992","ARG_OF_PERICENTER":"63.2341","GP_ID":"206166336","MEAN_MOTION_DDOT":"0.0000000000000","MEAN_MOTION_DOT":"-0.00000401","EPHEMERIS_TYPE":"0","REV_AT_EPOCH":"10346","FILE":"3496199"},{"REV_AT_EPOCH":"10344","MEAN_MOTION_DOT":"0.00000430","EPHEMERIS_TYPE":"0","FILE":"3496199","SITE":"AFETR","TLE_LINE1":"1 46048U 20055X   22165.84013768  .00000430  00000-0  47795-4 0  9990","ARG_OF_PERICENTER":"67.1907","GP_ID":"206166586","MEAN_MOTION_DDOT":"0.0000000000000","RCS_SIZE":"LARGE","PERIAPSIS":"545.920","ECCENTRICITY":"0.00018940","CLASSIFICATION_TYPE":"U","CENTER_NAME":"EARTH","LAUNCH_DATE":"2020-08-07","BSTAR":"0.00004779500000","OBJECT_ID":"2020-055X","DECAY_DATE":null,"PERIOD":"95.593","SEMIMAJOR_AXIS":"6925.367","REF_FRAME":"TEME","MEAN_ELEMENT_THEORY":"SGP4","ELEMENT_SET_NO":"999","MEAN_MOTION":"15.06394127","MEAN_ANOMALY":"292.9281","NORAD_CAT_ID":"46048","TIME_SYSTEM":"UTC","TLE_LINE2":"2 46048  53.0562 119.1904 0001894  67.1907 292.9281 15.06394127103445","EPOCH":"2022-06-14T20:09:47.895552","RA_OF_ASC_NODE":"119.1904","APOAPSIS":"548.543","OBJECT_NAME":"STARLINK-1527","OBJECT_TYPE":"PAYLOAD","COUNTRY_CODE":"US","INCLINATION":"53.0562"},{"REF_FRAME":"TEME","SEMIMAJOR_AXIS":"6925.361","PERIOD":"95.592","DECAY_DATE":null,"OBJECT_ID":"2020-055Y","TIME_SYSTEM":"UTC","TLE_LINE2":"2 46049  53.0547 119.2005 0002102  55.6467 304.4720 15.06395795103470","NORAD_CAT_ID":"46049","MEAN_ANOMALY":"304.4720","MEAN_MOTION":"15.06395795","ELEMENT_SET_NO":"999","MEAN_ELEMENT_THEORY":"SGP4","OBJECT_NAME":"STARLINK-1530","APOAPSIS":"548.682","RA_OF_ASC_NODE":"119.2005","EPOCH":"2022-06-14T20:04:29.492544","INCLINATION":"53.0547","COUNTRY_CODE":"US","OBJECT_TYPE":"PAYLOAD","FILE":"3496199","MEAN_MOTION_DOT":"-0.00000588","EPHEMERIS_TYPE":"0","REV_AT_EPOCH":"10347","MEAN_MOTION_DDOT":"0.0000000000000","TLE_LINE1":"1 46049U 20055Y   22165.83645246 -.00000588  00000-0 -20586-4 0  9997","ARG_OF_PERICENTER":"55.6467","GP_ID":"206167337","SITE":"AFETR","ECCENTRICITY":"0.00021020","PERIAPSIS":"545.771","RCS_SIZE":"LARGE","BSTAR":"-0.00002058600000","CENTER_NAME":"EARTH","LAUNCH_DATE":"2020-08-07","CLASSIFICATION_TYPE":"U"},{"COUNTRY_CODE":"US","OBJECT_TYPE":"PAYLOAD","INCLINATION":"53.0538","EPOCH":"2022-06-14T20:57:33.457824","APOAPSIS":"548.438","RA_OF_ASC_NODE":"119.0253","OBJECT_NAME":"STARLINK-1540","MEAN_ELEMENT_THEORY":"SGP4","ELEMENT_SET_NO":"999","MEAN_ANOMALY":"295.0785","MEAN_MOTION":"15.06398719","TLE_LINE2":"2 46051  53.0538 119.0253 0001763  65.0387 295.0785 15.06398719102962","TIME_SYSTEM":"UTC","NORAD_CAT_ID":"46051","DECAY_DATE":null,"OBJECT_ID":"2020-055AA","PERIOD":"95.592","REF_FRAME":"TEME","SEMIMAJOR_AXIS":"6925.352","LAUNCH_DATE":"2020-08-07","CENTER_NAME":"EARTH","CLASSIFICATION_TYPE":"U","BSTAR":"-0.00002640600000","RCS_SIZE":"LARGE","PERIAPSIS":"545.997","ECCENTRICITY":"0.00017630","SITE":"AFETR","TLE_LINE1":"1 46051U 20055AA  22165.87330391 -.00000675  00000-0 -26406-4 0  9990","GP_ID":"206146975","ARG_OF_PERICENTER":"65.0387","MEAN_MOTION_DDOT":"0.0000000000000","MEAN_MOTION_DOT":"-0.00000675","REV_AT_EPOCH":"10296","EPHEMERIS_TYPE":"0","FILE":"3496145"},{"MEAN_ELEMENT_THEORY":"SGP4","ELEMENT_SET_NO":"999","MEAN_ANOMALY":"288.9633","MEAN_MOTION":"15.06399241","TLE_LINE2":"2 46052  53.0562 119.0806 0001743  71.1545 288.9633 15.06399241103444","TIME_SYSTEM":"UTC","NORAD_CAT_ID":"46052","DECAY_DATE":null,"OBJECT_ID":"2020-055AB","PERIOD":"95.592","REF_FRAME":"TEME","SEMIMAJOR_AXIS":"6925.351","COUNTRY_CODE":"US","OBJECT_TYPE":"PAYLOAD","INCLINATION":"53.0562","EPOCH":"2022-06-14T20:36:20.036736","APOAPSIS":"548.423","RA_OF_ASC_NODE":"119.0806","OBJECT_NAME":"STARLINK-1541","SITE":"AFETR","GP_ID":"206166836","TLE_LINE1":"1 46052U 20055AB  22165.85856524  .00000811  00000-0  73366-4 0  9997","ARG_OF_PERICENTER":"71.1545","MEAN_MOTION_DDOT":"0.0000000000000","REV_AT_EPOCH":"10344","MEAN_MOTION_DOT":"0.00000811","EPHEMERIS_TYPE":"0","FILE":"3496199","CENTER_NAME":"EARTH","LAUNCH_DATE":"2020-08-07","CLASSIFICATION_TYPE":"U","BSTAR":"0.00007336600000","RCS_SIZE":"LARGE","PERIAPSIS":"546.009","ECCENTRICITY":"0.00017430"}];
